NORAD_CAT_ID,OBJECT_NAME,OBJECT_TYPE,EPOCH,MEAN_MOTION,ECCENTRICITY,INCLINATION,RA_OF_ASC_NODE,ARG_OF_PERICENTER,MEAN_ANOMALY,BSTAR,MEAN_MOTION_DOT,MEAN_MOTION_DDOT,TLE_LINE0,TLE_LINE1,TLE_LINE2,SEMIMAJOR_AXIS,PERIOD,APOGEE,PERIGEE,DECAYED
52834.0,STARLINK-4108,PAYLOAD,2023-12-13 13:22:37,15.08847362,0.0001345,53.2173,102.3736,85.3982,274.7164,0.00024622,3.634e-05,0.0,0 STARLINK-4108,1 52834U 22062E   23347.55738176  .00003634  00000-0  24622-3 0  9990,2 52834  53.2173 102.3736 0001345  85.3982 274.7164 15.08847362 82426,6917.858,95.437,540.653,538.792,0.0
52834.0,STARLINK-4108,PAYLOAD,2023-12-14 11:38:01,15.08849615,0.0001237,53.2168,98.2078,81.2952,278.818,4.9202e-05,4.95e-06,0.0,0 STARLINK-4108,1 52834U 22062E   23348.48474525  .00000495  00000-0  49202-4 0  9992,2 52834  53.2168  98.2078 0001237  81.2952 278.8180 15.08849615 82565,6917.851,95.437,540.572,538.86,0.0
52834.0,STARLINK-4108,PAYLOAD,2023-12-14 13:13:25,15.08845324,0.0001446,53.2174,97.9144,85.8334,274.2824,7.6638e-05,9.32e-06,0.0,0 STARLINK-4108,1 52834U 22062E   23348.55098683  .00000932  00000-0  76638-4 0  9996,2 52834  53.2174  97.9144 0001446  85.8334 274.2824 15.08845324 82577,6917.864,95.437,540.729,538.729,0.0
52834.0,STARLINK-4108,PAYLOAD,2023-12-14 14:48:48,15.08845999,0.0001448,53.2171,97.6156,73.9544,286.1607,8.8907e-05,1.127e-05,0.0,0 STARLINK-4108,1 52834U 22062E   23348.61722586  .00001127  00000-0  88907-4 0  9998,2 52834  53.2171  97.6156 0001448  73.9544 286.1607 15.08845999 82587,6917.862,95.437,540.729,538.725,0.0
52834.0,STARLINK-4108,PAYLOAD,2023-12-15 11:28:49,15.08847296,0.0001953,53.2171,93.7464,52.6646,307.4524,-0.00012885,-2.339e-05,0.0,0 STARLINK-4108,1 52834U 22062E   23349.47834985 -.00002339  00000-0 -12885-3 0  9999,2 52834  53.2171  93.7464 0001953  52.6646 307.4524 15.08847296 82716,6917.858,95.437,541.074,538.372,0.0
52834.0,STARLINK-4108,PAYLOAD,2023-12-15 14:39:36,15.08800234,0.0001851,53.2182,93.1546,70.0924,290.0268,0.00047131,7.213e-05,0.0,0 STARLINK-4108,1 52834U 22062E   23349.61083857  .00007213  00000-0  47131-3 0  9995,2 52834  53.2182  93.1546 0001851  70.0924 290.0268 15.08800234 82738,6918.002,95.44,541.147,538.586,0.0
52834.0,STARLINK-4108,PAYLOAD,2023-12-16 11:19:35,15.08843667,0.0001292,53.2183,89.2869,103.9991,256.1145,6.3203e-06,-1.87e-06,0.0,0 STARLINK-4108,1 52834U 22062E   23350.47194392 -.00000187  00000-0  63203-5 0  9992,2 52834  53.2183  89.2869 0001292 103.9991 256.1145 15.08843667 82860,6917.869,95.437,540.628,538.84,0.0
52834.0,STARLINK-4108,PAYLOAD,2023-12-16 14:30:22,15.08846312,0.0001801,53.2187,88.6917,57.9372,302.1795,9.3052e-05,1.193e-05,0.0,0 STARLINK-4108,1 52834U 22062E   23350.60442260  .00001193  00000-0  93052-4 0  9998,2 52834  53.2187  88.6917 0001801  57.9372 302.1795 15.08846312 82883,6917.861,95.437,540.972,538.48,0.0
52834.0,STARLINK-4108,PAYLOAD,2023-12-17 11:10:23,15.08829601,0.0001334,53.2195,84.8216,67.2158,292.8975,0.00014681,2.049e-05,0.0,0 STARLINK-4108,1 52834U 22062E   23351.46554840  .00002049  00000-0  14681-3 0  9992,2 52834  53.2195  84.8216 0001334  67.2158 292.8975 15.08829601 83012,6917.912,95.438,540.7,538.854,0.0
52834.0,STARLINK-4108,PAYLOAD,2023-12-17 12:45:46,15.08839568,0.000137,53.2182,84.5328,81.9324,278.1824,6.0481e-05,6.75e-06,0.0,0 STARLINK-4108,1 52834U 22062E   23351.53178719  .00000675  00000-0  60481-4 0  9990,2 52834  53.2182  84.5328 0001370  81.9324 278.1824 15.08839568 83021,6917.882,95.438,540.694,538.799,0.0
52834.0,STARLINK-4108,PAYLOAD,2023-12-18 11:01:09,15.0885189,0.0001384,53.2184,80.3663,93.0914,267.0236,3.9961e-05,3.48e-06,0.0,0 STARLINK-4108,1 52834U 22062E   23352.45913831  .00000348  00000-0  39961-4 0  9990,2 52834  53.2184  80.3663 0001384  93.0914 267.0236 15.08851890 83164,6917.844,95.437,540.666,538.752,0.0
52834.0,STARLINK-4108,PAYLOAD,2023-12-18 12:36:32,15.0885403,0.0001469,53.2178,80.0682,78.97,281.1457,5.8921e-05,6.5e-06,0.0,0 STARLINK-4108,1 52834U 22062E   23352.52537665  .00000650  00000-0  58921-4 0  9998,2 52834  53.2178  80.0682 0001469  78.9700 281.1457 15.08854030 83176,6917.838,95.437,540.719,538.686,0.0
52834.0,STARLINK-4108,PAYLOAD,2023-12-19 10:51:56,15.08843098,0.0001479,53.2182,75.9041,110.6473,249.4677,4.7447e-05,4.67e-06,0.0,0 STARLINK-4108,1 52834U 22062E   23353.45274129  .00000467  00000-0  47447-4 0  9991,2 52834  53.2182  75.9041 0001479 110.6473 249.4677 15.08843098 83314,6917.871,95.437,540.759,538.713,0.0
52834.0,STARLINK-4108,PAYLOAD,2023-12-19 12:27:19,15.08844675,0.0001449,53.2186,75.6067,111.4433,248.6714,4.9158e-05,4.95e-06,0.0,0 STARLINK-4108,1 52834U 22062E   23353.51898010  .00000495  00000-0  49158-4 0  9991,2 52834  53.2186  75.6067 0001449 111.4433 248.6714 15.08844675 83321,6917.866,95.437,540.733,538.729,0.0
52834.0,STARLINK-4108,PAYLOAD,2023-12-20 10:42:44,15.088351,0.0001382,53.2185,71.4453,99.4598,260.6551,-8.8011e-05,-1.688e-05,0.0,0 STARLINK-4108,1 52834U 22062E   23354.44635344 -.00001688  00000-0 -88011-4 0  9991,2 52834  53.2185  71.4453 0001382  99.4598 260.6551 15.08835100 83467,6917.895,95.438,540.716,538.804,0.0
52834.0,STARLINK-4108,PAYLOAD,2023-12-20 12:18:07,15.08840457,0.0001333,53.2184,71.1481,101.5572,258.557,-4.0526e-05,-9.33e-06,0.0,0 STARLINK-4108,1 52834U 22062E   23354.51258935 -.00000933  00000-0 -40526-4 0  9997,2 52834  53.2184  71.1481 0001333 101.5572 258.5570 15.08840457 83476,6917.879,95.438,540.666,538.822,0.0
52834.0,STARLINK-4108,PAYLOAD,2023-12-21 10:33:31,15.08843284,0.0001359,53.2184,66.9847,97.8957,262.2189,0.00011915,1.609e-05,0.0,0 STARLINK-4108,1 52834U 22062E   23355.43994576  .00001609  00000-0  11915-3 0  9995,2 52834  53.2184  66.9847 0001359  97.8957 262.2189 15.08843284 83611,6917.87,95.437,540.675,538.795,0.0
52834.0,STARLINK-4108,PAYLOAD,2023-12-22 11:59:42,15.08840333,0.0001381,53.2179,62.2294,87.9106,272.2044,6.5474e-05,7.54e-06,0.0,0 STARLINK-4108,1 52834U 22062E   23356.49979264  .00000754  00000-0  65474-4 0  9999,2 52834  53.2179  62.2294 0001381  87.9106 272.2044 15.08840333 83771,6917.879,95.438,540.7,538.789,0.0
52834.0,STARLINK-4108,PAYLOAD,2023-12-23 03:53:34,15.08816599,0.0001694,53.2187,59.2584,88.07,272.0486,0.00067569,0.00010475,0.0,0 STARLINK-4108,1 52834U 22062E   23357.16220253  .00010475  00000-0  67569-3 0  9998,2 52834  53.2187  59.2584 0001694  88.0700 272.0486 15.08816599 83873,6917.952,95.439,540.989,538.645,0.0
52834.0,STARLINK-4108,PAYLOAD,2023-12-23 11:50:30,15.08822229,0.0001767,53.2188,57.7695,77.2127,282.9062,0.000656,0.00010163,0.0,0 STARLINK-4108,1 52834U 22062E   23357.49340482  .00010163  00000-0  65600-3 0  9999,2 52834  53.2188  57.7695 0001767  77.2127 282.9062 15.08822229 83927,6917.935,95.439,541.022,538.577,0.0
52834.0,STARLINK-4108,PAYLOAD,2023-12-24 10:05:53,15.08841313,0.0001519,53.2181,53.6062,79.518,280.5983,7.9273e-05,9.74e-06,0.0,0 STARLINK-4108,1 52834U 22062E   23358.42075750  .00000974  00000-0  79273-4 0  9997,2 52834  53.2181  53.6062 0001519  79.5180 280.5983 15.08841313 84069,6917.876,95.437,540.792,538.691,0.0
52834.0,STARLINK-4108,PAYLOAD,2023-12-25 09:56:40,15.08844081,0.0001643,53.2178,49.1467,76.4169,283.7007,0.00012611,1.72e-05,0.0,0 STARLINK-4108,1 52834U 22062E   23359.41435397  .00001720  00000-0  12611-3 0  9996,2 52834  53.2178  49.1467 0001643  76.4169 283.7007 15.08844081 84219,6917.868,95.437,540.87,538.596,0.0
52834.0,STARLINK-4108,PAYLOAD,2023-12-26 03:25:55,15.0883402,0.0001786,53.2187,45.8783,80.9577,279.1617,3.1146e-05,2.08e-06,0.0,0 STARLINK-4108,1 52834U 22062E   23360.14300176  .00000208  00000-0  31146-4 0  9999,2 52834  53.2187  45.8783 0001786  80.9577 279.1617 15.08834020 84324,6917.899,95.438,540.999,538.528,0.0
52834.0,STARLINK-4108,PAYLOAD,2023-12-26 12:58:13,15.08842704,0.0001709,53.2183,44.0871,119.7513,240.365,3.9373e-05,3.39e-06,0.0,0 STARLINK-4108,1 52834U 22062E   23360.54043409  .00000339  00000-0  39373-4 0  9991,2 52834  53.2183  44.0871 0001709 119.7513 240.3650 15.08842704 84386,6917.872,95.437,540.919,538.555,0.0
52834.0,STARLINK-4108,PAYLOAD,2023-12-27 03:16:42,15.08830365,0.0001549,53.2176,41.4089,116.3598,243.7553,3.0522e-05,1.98e-06,0.0,0 STARLINK-4108,1 52834U 22062E   23361.13660144  .00000198  00000-0  30522-4 0  9998,2 52834  53.2176  41.4089 0001549 116.3598 243.7553 15.08830365 84477,6917.91,95.438,540.846,538.703,0.0
52834.0,STARLINK-4108,PAYLOAD,2023-12-27 09:38:14,15.08840149,0.0001719,53.2186,40.2262,101.116,259.0025,4.6955e-05,4.59e-06,0.0,0 STARLINK-4108,1 52834U 22062E   23361.40155750  .00000459  00000-0  46955-4 0  9997,2 52834  53.2186  40.2262 0001719 101.1160 259.0025 15.08840149 84514,6917.88,95.438,540.934,538.556,0.0
52834.0,STARLINK-4108,PAYLOAD,2023-12-28 09:29:01,15.08835675,0.0001867,53.2195,35.7675,109.0918,251.0276,0.00012261,1.664e-05,0.0,0 STARLINK-4108,1 52834U 22062E   23362.39516045  .00001664  00000-0  12261-3 0  9995,2 52834  53.2195  35.7675 0001867 109.0918 251.0276 15.08835675 84667,6917.894,95.438,541.05,538.467,0.0
52834.0,STARLINK-4108,PAYLOAD,2023-12-29 10:55:12,15.08837051,0.0001615,53.2192,31.008,105.6978,254.4193,3.946e-05,3.4e-06,0.0,0 STARLINK-4108,1 52834U 22062E   23363.45500497  .00000340  00000-0  39460-4 0  9998,2 52834  53.2192  31.0080 0001615 105.6978 254.4193 15.08837051 84825,6917.889,95.438,540.872,538.637,0.0
52834.0,STARLINK-4108,PAYLOAD,2023-12-30 10:45:59,15.08808971,0.000184,53.2195,26.5396,93.4823,266.6379,0.00059472,9.182e-05,0.0,0 STARLINK-4108,1 52834U 22062E   23364.44860821  .00009182  00000-0  59472-3 0  9995,2 52834  53.2195  26.5396 0001840  93.4823 266.6379 15.08808971 84976,6917.975,95.44,541.113,538.567,0.0
52834.0,STARLINK-4108,PAYLOAD,2023-12-31 10:36:46,15.08837074,0.0001619,53.2192,22.0799,82.0145,278.1031,5.1282e-05,5.28e-06,0.0,0 STARLINK-4108,1 52834U 22062E   23365.44220885  .00000528  00000-0  51282-4 0  9993,2 52834  53.2192  22.0799 0001619  82.0145 278.1031 15.08837074 85123,6917.889,95.438,540.874,538.634,0.0
